MOLNIYA 2-9             
1 07276U 74026A   22311.20211214  .00000139  00000+0  00000+0 0  9994
2 07276  64.2784 207.4320 6425760 279.4802  18.0335  2.45096387252716
MOLNIYA 2-10            
1 07376U 74056A   22306.13831782  .00000714  00000+0  00000+0 0  9991
2 07376  64.2948  80.4563 6755927 285.6232  13.7218  2.01068664353155
MOLNIYA 1-S             
1 07392U 74060A   22313.57341314  .00000121  00000+0  00000+0 0  9999
2 07392   4.7542 280.7593 0011061 216.7633 168.3981  1.00222664120985
MOLNIYA 1-29            
1 07780U 75036A   22313.72944705  .00000024  00000+0 -65955-1 0  9999
2 07780  63.4136 199.2741 6842583 288.1909  12.5508  2.00603742348564
MOLNIYA 2-14            
1 08195U 75081A   22312.18167199 -.00000008  00000+0  00000+0 0  9993
2 08195  63.3928 172.7116 6758842 292.4333  11.9162  2.02104749345794
MOLNIYA 1-32            
1 08601U 76006A   22310.01446477  .00001007  00000+0  13249-1 0  9992
2 08601  63.4903 278.1584 7197413 283.8903  11.2647  1.99958948 55498
MOLNIYA 1-36            
1 09880U 77021A   22312.79154264 -.00001349  00000+0  00000+0 0  9996
2 09880  63.4974 249.7938 7114622 289.5871  10.5149  2.00795920232264
MOLNIYA 3-8             
1 10455U 77105A   22314.03619107 -.00001517  00000+0  97574-3 0  9993
2 10455  63.4322 335.7883 7350392 282.4513  10.6678  2.00691328329988
MOLNIYA 1-40            
1 10925U 78055A   22313.24133902 -.00000454  00000+0  00000+0 0  9999
2 10925  63.4915  27.4916 7271525 280.7087  11.7406  2.00730769325583
MOLNIYA 3-10            
1 11057U 78095A   22314.00621437  .00000077  00000+0  65469-3 0  9994
2 11057  63.2358 345.7652 5784886 311.4315  11.6162  4.09863393389708
MOLNIYA 3-13            
1 11896U 80063A   22313.50064950 -.00000021  00000+0  00000+0 0  9994
2 11896  62.7453 118.7247 7132716 276.4980  13.8247  2.00654598310050
MOLNIYA 1-49            
1 12156U 81009A   22313.54876435 -.00000924  00000+0  16356-2 0  9994
2 12156  61.6966 143.1540 7306882 264.5263  16.3996  2.05712553224474
MOLNIYA 1-52            
1 13012U 81123A   22312.95513164  .00001361  00000+0  17317-1 0  9996
2 13012  61.6492 257.9000 7216027 256.8059  20.5088  2.00449413299471
MOLNIYA 1-53            
1 13070U 82015A   22313.12370873 -.00001121  00000+0 -11835-1 0  9994
2 13070  62.5769 196.5294 6997267 283.0043  12.9679  2.00554217298166
MOLNIYA 3-20            
1 13875U 83015A   22313.15956442  .00001356  00000+0  29126-2 0  9994
2 13875  62.6569 329.7978 7393486 259.4782  17.4381  2.00733023226613
MOLNIYA 1-56            
1 13890U 83019A   22313.24936333  .00001855  00000+0  14713-2 0  9992
2 13890  62.9107 354.7593 7452088 265.2994  14.7515  1.99908522289495
MOLNIYA 1-63            
1 15429U 84124A   22307.04038845 -.00000276  00000+0  00000+0 0  9990
2 15429  63.7593 154.4264 6678699 258.6666 338.9516  2.00856889277537
MOLNIYA 3-24            
1 15738U 85040A   22310.94631251 -.00000010  00000+0  26391-2 0  9994
2 15738  63.6246  56.0397 6846769 247.2403  30.2973  2.55627731307519
MOLNIYA 3-27            
1 16393U 85117A   22312.76721600 -.00000126  00000+0  00000+0 0  9991
2 16393  64.3397  62.4966 7030956 247.5419  27.8073  2.12396986277246
MOLNIYA 1-69            
1 17078U 86089A   22312.88993165  .00000552  00000+0  00000+0 0  9993
2 17078  63.9925 172.8058 6678734 256.9796  25.9987  2.00694764263745
MOLNIYA 3-31            
1 17328U 87008A   22313.49975325  .00000268  00000+0  00000+0 0  9993
2 17328  63.6928 111.1728 7102008 253.4310  23.4339  2.00675466258807
MOLNIYA 1-71            
1 18946U 88017A   22313.45433798 -.00000167  00000+0  00000+0 0  9999
2 18946  63.3768 104.3502 7214189 256.3195  20.7594  2.00592616253964
MOLNIYA 1-75            
1 19807U 89014A   22307.20582101 -.00000156  00000+0  00000+0 0  9991
2 19807  64.0075 269.4606 6814310 266.3555  19.9491  2.00574631246785
MOLNIYA 1-80            
1 21118U 91012A   22310.41357133 -.00000287  00000+0  00000+0 0  9997
2 21118  65.1967 317.5459 6760458 275.8092  16.6471  2.05237654233896
MOLNIYA 3-40            
1 21196U 91022A   22311.18849898  .00000922  00000+0  00000+0 0  9998
2 21196  65.0926 311.1215 6788011 272.6385  17.5717  2.03006754232582
MOLNIYA 1-81            
1 21426U 91043A   22313.57859793 -.00000228  00000+0  00000+0 0  9997
2 21426  64.0479 325.6711 7080361 266.2122  17.5844  2.00630659230058
MOLNIYA 3-41            
1 21706U 91065A   22312.76076682  .00001193  00000+0  00000+0 0  9991
2 21706  64.0930 150.1695 6891844 254.5398  25.0926  2.04345376229813
MOLNIYA 3-42            
1 22178U 92067A   22312.60225531  .00000180  00000+0  00000+0 0  9995
2 22178  64.6709 200.8274 6419781 264.7008  24.4793  2.20434540 83239
MOLNIYA 1-86            
1 22671U 93035A   22314.07404547  .00000243  00000+0  29265-3 0  9996
2 22671  63.0872 152.1944 4863293   9.3834 357.2187  5.62756170360443
MOLNIYA 1-87            
1 22949U 93079A   22307.56099017  .00001266  00000+0  00000+0 0  9998
2 22949  64.1065  76.2650 6900404 283.5100  13.4088  2.02857760212105
MOLNIYA 1-88            
1 23420U 94081A   22313.18966318  .00000110  00000+0  00000+0 0  9996
2 23420  64.2798 163.8576 5795234 280.3589  22.5112  3.34495181118545
MOLNIYA 3-47            
1 23642U 95042A   22313.35532655 -.00000219  00000+0  00000+0 0  9993
2 23642  64.2531  57.2006 6948073 283.7283  13.0638  2.01982685199944
MOLNIYA 1-90            
1 24960U 97054A   22313.37616200  .00000080  00000+0 -16230-2 0  9994
2 24960  63.6743 129.9141 6100296 297.6700  14.0536  3.18687302212624
MOLNIYA 1-91            
1 25485U 98054A   22313.48069286  .00000151  00000+0  22925-2 0  9992
2 25485  63.0925 127.6871 6770397 291.8737  14.2016  2.36442061181809
MOLNIYA 3-50            
1 25847U 99036A   22313.04500127 -.00000283  00000+0 -87409-3 0  9998
2 25847  63.2733 312.3002 7346556 282.4103  10.6737  2.00670353171019
